{
"type": "FeatureCollection",
"name": "AkutSjukhus",
"crs": { "type": "name", "properties": { "name": "urn:ogc:def:crs:OGC:1.3:CRS84" } },
"features": [
{ "type": "Feature", "properties": { "fid": 68.0, "full_id": "w331006879", "osm_id": "331006879", "osm_type": "way", "emergency": "yes", "old_name": null, "descriptio": null, "descript_1": null, "landuse": null, "surface": null, "parking": null, "access": null, "hospital": null, "smoking": null, "loc_name": null, "beds_healt": null, "operator_w": null, "aeroway": null, "toilets_wh": null, "name_fi": null, "name_zh-Ha": null, "name_zh-_1": null, "name_uk": null, "name_pt": null, "name_fr": null, "name_es": null, "internet_a": null, "health_spe": null, "wikimedia_": null, "roof_shape": null, "roof_level": null, "location": null, "check_date": "2024-08-03", "start_date": null, "operator_1": null, "wheelchair": null, "short_name": null, "payment_de": null, "payment_cr": null, "payment_ca": null, "internet_1": null, "internet_2": null, "emergency_": null, "contact_ph": null, "alt_name": null, "name_sv": null, "name_en": null, "building_l": null, "addr_house": null, "opening_ho": null, "health_s_1": null, "health_s_2": null, "health_s_3": null, "health_s_4": null, "health_s_5": null, "health_s_6": null, "health_s_7": null, "health_s_8": null, "health_s_9": null, "health_s10": null, "health_s11": null, "health_s12": null, "health_s13": null, "health_s14": null, "health_s15": null, "health_s16": null, "health_s17": null, "health_s18": null, "health_s19": null, "health_s20": null, "name_ar": null, "health_s21": null, "phone": null, "layer": null, "addr_postc": null, "height": null, "operator_t": null, "healthcare": null, "designatio": null, "addr_stree": null, "addr_hou_1": null, "addr_count": null, "addr_city": null, "wikipedia": null, "wikidata": null, "health_s22": null, "health_s23": null, "health_s24": null, "contact_we": null, "website": null, "type": null, "operator": "Stockholms Landsting", "opening__1": null, "opening__2": "24/7", "network": null, "name": "Södertälje sjukhus", "healthca_1": "hospital", "health_s25": "yes", "health_s26": null, "health_s27": "yes", "health_s28": "yes", "health_s29": "yes", "health_s30": "yes", "building": null, "amenity": "hospital", "informatio": null, "official_n": null, "support": null, "lamp_type": null, "door_wings": null, "colour": null, "source_nam": null, "direction": null, "swing_gate": null, "locked": null, "shelter_ty": null, "leisure": null, "seamark_ty": null, "seamark_sm": null, "door": null, "bollard": null, "emergenc_1": null, "level": null, "payment_vi": null, "payment_ma": null, "air_condit": null, "overtaking": null, "crossing_s": null, "traffic_si": null, "traffic__1": null, "payment_sw": null, "payment_in": null, "psv": null, "motorcycle": null, "motorcar": null, "motor_vehi": null, "hov": null, "horse": null, "hgv": null, "goods": null, "agricultur": null, "crossing_1": null, "foot": null, "source_dat": null, "material": null, "lift_gate_": null, "check_da_1": null, "email": null, "contact_fa": null, "brand_wiki": null, "brand": null, "branch": null, "junction": null, "entrance": null, "ref": null, "barrier": null, "railway": null, "tourism": null, "snowmobile": null, "service": null, "dnt_iid": null, "dnt_discou": null, "dnt_classi": null, "capacity": null, "affiliatio": null, "bicycle": null, "kerb": null, "crossing_m": null, "traffic_ca": null, "tactile_pa": null, "crossing_i": null, "hazard_bic": null, "highway": null, "crossing": null, "button_ope": null, "path": "Cent.gpkg|layername=Cent" }, "geometry": { "type": "Point", "coordinates": [ 17.632959485350277, 59.198810079975473 ] } },
{ "type": "Feature", "properties": { "fid": 73.0, "full_id": "w392785310", "osm_id": "392785310", "osm_type": "way", "emergency": "yes", "old_name": null, "descriptio": null, "descript_1": null, "landuse": null, "surface": null, "parking": null, "access": null, "hospital": null, "smoking": null, "loc_name": null, "beds_healt": null, "operator_w": null, "aeroway": null, "toilets_wh": null, "name_fi": "Huddingen karoliininen yliopistosairaala", "name_zh-Ha": null, "name_zh-_1": null, "name_uk": null, "name_pt": null, "name_fr": null, "name_es": null, "internet_a": null, "health_spe": null, "wikimedia_": null, "roof_shape": null, "roof_level": null, "location": null, "check_date": "2025-11-30", "start_date": null, "operator_1": null, "wheelchair": null, "short_name": null, "payment_de": null, "payment_cr": null, "payment_ca": null, "internet_1": null, "internet_2": null, "emergency_": "yes", "contact_ph": null, "alt_name": null, "name_sv": "Karolinska universitetssjukhuset Huddinge", "name_en": null, "building_l": null, "addr_house": null, "opening_ho": null, "health_s_1": null, "health_s_2": null, "health_s_3": null, "health_s_4": null, "health_s_5": null, "health_s_6": null, "health_s_7": null, "health_s_8": null, "health_s_9": null, "health_s10": null, "health_s11": null, "health_s12": null, "health_s13": null, "health_s14": null, "health_s15": null, "health_s16": null, "health_s17": null, "health_s18": null, "health_s19": null, "health_s20": null, "name_ar": null, "health_s21": "yes", "phone": null, "layer": null, "addr_postc": null, "height": null, "operator_t": "public", "healthcare": null, "designatio": null, "addr_stree": null, "addr_hou_1": null, "addr_count": null, "addr_city": null, "wikipedia": null, "wikidata": null, "health_s22": null, "health_s23": null, "health_s24": null, "contact_we": null, "website": "https://www.karolinska.se/", "type": null, "operator": "Region Stockholm", "opening__1": null, "opening__2": "24/7", "network": null, "name": "Karolinska universitetssjukhuset Huddinge", "healthca_1": "hospital", "health_s25": "yes", "health_s26": null, "health_s27": "yes", "health_s28": "yes", "health_s29": "yes", "health_s30": "yes", "building": null, "amenity": "hospital", "informatio": null, "official_n": null, "support": null, "lamp_type": null, "door_wings": null, "colour": null, "source_nam": null, "direction": null, "swing_gate": null, "locked": null, "shelter_ty": null, "leisure": null, "seamark_ty": null, "seamark_sm": null, "door": null, "bollard": null, "emergenc_1": null, "level": null, "payment_vi": null, "payment_ma": null, "air_condit": null, "overtaking": null, "crossing_s": null, "traffic_si": null, "traffic__1": null, "payment_sw": null, "payment_in": null, "psv": null, "motorcycle": null, "motorcar": null, "motor_vehi": null, "hov": null, "horse": null, "hgv": null, "goods": null, "agricultur": null, "crossing_1": null, "foot": null, "source_dat": null, "material": null, "lift_gate_": null, "check_da_1": null, "email": null, "contact_fa": null, "brand_wiki": null, "brand": null, "branch": null, "junction": null, "entrance": null, "ref": null, "barrier": null, "railway": null, "tourism": null, "snowmobile": null, "service": null, "dnt_iid": null, "dnt_discou": null, "dnt_classi": null, "capacity": null, "affiliatio": null, "bicycle": null, "kerb": null, "crossing_m": null, "traffic_ca": null, "tactile_pa": null, "crossing_i": null, "hazard_bic": null, "highway": null, "crossing": null, "button_ope": null, "path": "Cent.gpkg|layername=Cent" }, "geometry": { "type": "Point", "coordinates": [ 17.934014116468116, 59.221057783656725 ] } },
{ "type": "Feature", "properties": { "fid": 173.0, "full_id": "n12529882338", "osm_id": "12529882338", "osm_type": "node", "emergency": "yes", "old_name": null, "descriptio": null, "descript_1": null, "landuse": null, "surface": null, "parking": null, "access": null, "hospital": null, "smoking": null, "loc_name": null, "beds_healt": null, "operator_w": null, "aeroway": null, "toilets_wh": null, "name_fi": null, "name_zh-Ha": null, "name_zh-_1": null, "name_uk": null, "name_pt": null, "name_fr": null, "name_es": null, "internet_a": null, "health_spe": null, "wikimedia_": null, "roof_shape": null, "roof_level": null, "location": null, "check_date": null, "start_date": null, "operator_1": "Q498606", "wheelchair": null, "short_name": null, "payment_de": null, "payment_cr": null, "payment_ca": null, "internet_1": null, "internet_2": null, "emergency_": null, "contact_ph": null, "alt_name": null, "name_sv": null, "name_en": null, "building_l": null, "addr_house": null, "opening_ho": null, "health_s_1": null, "health_s_2": null, "health_s_3": null, "health_s_4": null, "health_s_5": null, "health_s_6": null, "health_s_7": null, "health_s_8": null, "health_s_9": null, "health_s10": null, "health_s11": null, "health_s12": null, "health_s13": null, "health_s14": null, "health_s15": null, "health_s16": null, "health_s17": null, "health_s18": null, "health_s19": null, "health_s20": null, "name_ar": null, "health_s21": null, "phone": null, "layer": null, "addr_postc": null, "height": null, "operator_t": "private", "healthcare": null, "designatio": null, "addr_stree": "Sankt Göransgatan", "addr_hou_1": "139", "addr_count": null, "addr_city": "Stockholm", "wikipedia": null, "wikidata": null, "health_s22": null, "health_s23": null, "health_s24": null, "contact_we": null, "website": null, "type": null, "operator": "Capio", "opening__1": null, "opening__2": "24/7", "network": null, "name": "Sankt Görans sjukhus Akutmottagning", "healthca_1": "hospital", "health_s25": null, "health_s26": null, "health_s27": null, "health_s28": null, "health_s29": null, "health_s30": null, "building": null, "amenity": "hospital", "informatio": null, "official_n": null, "support": null, "lamp_type": null, "door_wings": null, "colour": null, "source_nam": null, "direction": null, "swing_gate": null, "locked": null, "shelter_ty": null, "leisure": null, "seamark_ty": null, "seamark_sm": null, "door": null, "bollard": null, "emergenc_1": null, "level": null, "payment_vi": null, "payment_ma": null, "air_condit": null, "overtaking": null, "crossing_s": null, "traffic_si": null, "traffic__1": null, "payment_sw": null, "payment_in": null, "psv": null, "motorcycle": null, "motorcar": null, "motor_vehi": null, "hov": null, "horse": null, "hgv": null, "goods": null, "agricultur": null, "crossing_1": null, "foot": null, "source_dat": null, "material": null, "lift_gate_": null, "check_da_1": null, "email": null, "contact_fa": null, "brand_wiki": null, "brand": null, "branch": null, "junction": null, "entrance": null, "ref": null, "barrier": null, "railway": null, "tourism": null, "snowmobile": null, "service": null, "dnt_iid": null, "dnt_discou": null, "dnt_classi": null, "capacity": null, "affiliatio": null, "bicycle": null, "kerb": null, "crossing_m": null, "traffic_ca": null, "tactile_pa": null, "crossing_i": null, "hazard_bic": null, "highway": null, "crossing": null, "button_ope": null, "path": "Pointem.gpkg|layername=emergency_yes_sweden" }, "geometry": { "type": "Point", "coordinates": [ 18.022047, 59.3343502 ] } },
{ "type": "Feature", "properties": { "fid": 174.0, "full_id": "n12529882340", "osm_id": "12529882340", "osm_type": "node", "emergency": "yes", "old_name": null, "descriptio": null, "descript_1": null, "landuse": null, "surface": null, "parking": null, "access": null, "hospital": null, "smoking": null, "loc_name": null, "beds_healt": null, "operator_w": null, "aeroway": null, "toilets_wh": null, "name_fi": null, "name_zh-Ha": null, "name_zh-_1": null, "name_uk": null, "name_pt": null, "name_fr": null, "name_es": null, "internet_a": null, "health_spe": null, "wikimedia_": null, "roof_shape": null, "roof_level": null, "location": null, "check_date": null, "start_date": null, "operator_1": null, "wheelchair": null, "short_name": null, "payment_de": null, "payment_cr": null, "payment_ca": null, "internet_1": null, "internet_2": null, "emergency_": null, "contact_ph": null, "alt_name": null, "name_sv": null, "name_en": null, "building_l": null, "addr_house": null, "opening_ho": null, "health_s_1": null, "health_s_2": null, "health_s_3": null, "health_s_4": null, "health_s_5": null, "health_s_6": null, "health_s_7": null, "health_s_8": null, "health_s_9": null, "health_s10": null, "health_s11": null, "health_s12": null, "health_s13": null, "health_s14": null, "health_s15": null, "health_s16": null, "health_s17": null, "health_s18": null, "health_s19": null, "health_s20": null, "name_ar": null, "health_s21": null, "phone": null, "layer": null, "addr_postc": null, "height": null, "operator_t": null, "healthcare": null, "designatio": null, "addr_stree": "Sjukhusbacken", "addr_hou_1": "12", "addr_count": null, "addr_city": "Stockholm", "wikipedia": null, "wikidata": null, "health_s22": null, "health_s23": null, "health_s24": null, "contact_we": null, "website": null, "type": null, "operator": null, "opening__1": null, "opening__2": "24/7", "network": null, "name": "Södersjukhuset Akutmottagning", "healthca_1": "hospital", "health_s25": null, "health_s26": null, "health_s27": null, "health_s28": null, "health_s29": null, "health_s30": null, "building": null, "amenity": "hospital", "informatio": null, "official_n": null, "support": null, "lamp_type": null, "door_wings": null, "colour": null, "source_nam": null, "direction": null, "swing_gate": null, "locked": null, "shelter_ty": null, "leisure": null, "seamark_ty": null, "seamark_sm": null, "door": null, "bollard": null, "emergenc_1": null, "level": null, "payment_vi": null, "payment_ma": null, "air_condit": null, "overtaking": null, "crossing_s": null, "traffic_si": null, "traffic__1": null, "payment_sw": null, "payment_in": null, "psv": null, "motorcycle": null, "motorcar": null, "motor_vehi": null, "hov": null, "horse": null, "hgv": null, "goods": null, "agricultur": null, "crossing_1": null, "foot": null, "source_dat": null, "material": null, "lift_gate_": null, "check_da_1": null, "email": null, "contact_fa": null, "brand_wiki": null, "brand": null, "branch": null, "junction": null, "entrance": null, "ref": null, "barrier": null, "railway": null, "tourism": null, "snowmobile": null, "service": null, "dnt_iid": null, "dnt_discou": null, "dnt_classi": null, "capacity": null, "affiliatio": null, "bicycle": null, "kerb": null, "crossing_m": null, "traffic_ca": null, "tactile_pa": null, "crossing_i": null, "hazard_bic": null, "highway": null, "crossing": null, "button_ope": null, "path": "Pointem.gpkg|layername=emergency_yes_sweden" }, "geometry": { "type": "Point", "coordinates": [ 18.0548329, 59.310103399999988 ] } },
{ "type": "Feature", "properties": { "fid": 175.0, "full_id": "n12529882341", "osm_id": "12529882341", "osm_type": "node", "emergency": "yes", "old_name": null, "descriptio": null, "descript_1": null, "landuse": null, "surface": null, "parking": null, "access": null, "hospital": null, "smoking": null, "loc_name": null, "beds_healt": null, "operator_w": null, "aeroway": null, "toilets_wh": null, "name_fi": null, "name_zh-Ha": null, "name_zh-_1": null, "name_uk": null, "name_pt": null, "name_fr": null, "name_es": null, "internet_a": null, "health_spe": null, "wikimedia_": null, "roof_shape": null, "roof_level": null, "location": null, "check_date": null, "start_date": null, "operator_1": null, "wheelchair": null, "short_name": null, "payment_de": null, "payment_cr": null, "payment_ca": null, "internet_1": null, "internet_2": null, "emergency_": null, "contact_ph": null, "alt_name": null, "name_sv": null, "name_en": null, "building_l": null, "addr_house": null, "opening_ho": null, "health_s_1": null, "health_s_2": null, "health_s_3": null, "health_s_4": null, "health_s_5": null, "health_s_6": null, "health_s_7": null, "health_s_8": null, "health_s_9": null, "health_s10": null, "health_s11": null, "health_s12": null, "health_s13": null, "health_s14": null, "health_s15": null, "health_s16": null, "health_s17": null, "health_s18": null, "health_s19": null, "health_s20": null, "name_ar": null, "health_s21": null, "phone": null, "layer": null, "addr_postc": null, "height": null, "operator_t": null, "healthcare": null, "designatio": null, "addr_stree": "Entrévägen", "addr_hou_1": "4", "addr_count": null, "addr_city": "Danderyd", "wikipedia": null, "wikidata": null, "health_s22": null, "health_s23": null, "health_s24": null, "contact_we": null, "website": null, "type": null, "operator": null, "opening__1": null, "opening__2": "24/7", "network": null, "name": "Danderyds sjukhus Akutmottagning", "healthca_1": "hospital", "health_s25": null, "health_s26": null, "health_s27": null, "health_s28": null, "health_s29": null, "health_s30": null, "building": null, "amenity": "hospital", "informatio": null, "official_n": null, "support": null, "lamp_type": null, "door_wings": null, "colour": null, "source_nam": null, "direction": null, "swing_gate": null, "locked": null, "shelter_ty": null, "leisure": null, "seamark_ty": null, "seamark_sm": null, "door": null, "bollard": null, "emergenc_1": null, "level": null, "payment_vi": null, "payment_ma": null, "air_condit": null, "overtaking": null, "crossing_s": null, "traffic_si": null, "traffic__1": null, "payment_sw": null, "payment_in": null, "psv": null, "motorcycle": null, "motorcar": null, "motor_vehi": null, "hov": null, "horse": null, "hgv": null, "goods": null, "agricultur": null, "crossing_1": null, "foot": null, "source_dat": null, "material": null, "lift_gate_": null, "check_da_1": null, "email": null, "contact_fa": null, "brand_wiki": null, "brand": null, "branch": null, "junction": null, "entrance": null, "ref": null, "barrier": null, "railway": null, "tourism": null, "snowmobile": null, "service": null, "dnt_iid": null, "dnt_discou": null, "dnt_classi": null, "capacity": null, "affiliatio": null, "bicycle": null, "kerb": null, "crossing_m": null, "traffic_ca": null, "tactile_pa": null, "crossing_i": null, "hazard_bic": null, "highway": null, "crossing": null, "button_ope": null, "path": "Pointem.gpkg|layername=emergency_yes_sweden" }, "geometry": { "type": "Point", "coordinates": [ 18.0404165, 59.3915437 ] } },
{ "type": "Feature", "properties": { "fid": 178.0, "full_id": "n12532092343", "osm_id": "12532092343", "osm_type": "node", "emergency": "yes", "old_name": null, "descriptio": null, "descript_1": null, "landuse": null, "surface": null, "parking": null, "access": null, "hospital": null, "smoking": null, "loc_name": null, "beds_healt": null, "operator_w": null, "aeroway": null, "toilets_wh": null, "name_fi": null, "name_zh-Ha": null, "name_zh-_1": null, "name_uk": null, "name_pt": null, "name_fr": null, "name_es": null, "internet_a": null, "health_spe": null, "wikimedia_": null, "roof_shape": null, "roof_level": null, "location": null, "check_date": null, "start_date": null, "operator_1": null, "wheelchair": null, "short_name": null, "payment_de": null, "payment_cr": null, "payment_ca": null, "internet_1": null, "internet_2": null, "emergency_": null, "contact_ph": null, "alt_name": null, "name_sv": null, "name_en": null, "building_l": null, "addr_house": null, "opening_ho": null, "health_s_1": null, "health_s_2": null, "health_s_3": null, "health_s_4": null, "health_s_5": null, "health_s_6": null, "health_s_7": null, "health_s_8": null, "health_s_9": null, "health_s10": null, "health_s11": null, "health_s12": null, "health_s13": null, "health_s14": null, "health_s15": null, "health_s16": null, "health_s17": null, "health_s18": null, "health_s19": null, "health_s20": null, "name_ar": null, "health_s21": null, "phone": null, "layer": null, "addr_postc": "76145", "height": null, "operator_t": null, "healthcare": null, "designatio": null, "addr_stree": "Esplanaden", "addr_hou_1": "24", "addr_count": null, "addr_city": "Norrtälje", "wikipedia": null, "wikidata": null, "health_s22": null, "health_s23": null, "health_s24": null, "contact_we": null, "website": null, "type": null, "operator": null, "opening__1": null, "opening__2": "24/7", "network": null, "name": "Norrtälje Sjukhus Akutmottagning", "healthca_1": "hospital", "health_s25": null, "health_s26": null, "health_s27": null, "health_s28": null, "health_s29": null, "health_s30": null, "building": null, "amenity": "hospital", "informatio": null, "official_n": null, "support": null, "lamp_type": null, "door_wings": null, "colour": null, "source_nam": null, "direction": null, "swing_gate": null, "locked": null, "shelter_ty": null, "leisure": null, "seamark_ty": null, "seamark_sm": null, "door": null, "bollard": null, "emergenc_1": null, "level": null, "payment_vi": null, "payment_ma": null, "air_condit": null, "overtaking": null, "crossing_s": null, "traffic_si": null, "traffic__1": null, "payment_sw": null, "payment_in": null, "psv": null, "motorcycle": null, "motorcar": null, "motor_vehi": null, "hov": null, "horse": null, "hgv": null, "goods": null, "agricultur": null, "crossing_1": null, "foot": null, "source_dat": null, "material": null, "lift_gate_": null, "check_da_1": null, "email": null, "contact_fa": null, "brand_wiki": null, "brand": null, "branch": null, "junction": null, "entrance": null, "ref": null, "barrier": null, "railway": null, "tourism": null, "snowmobile": null, "service": null, "dnt_iid": null, "dnt_discou": null, "dnt_classi": null, "capacity": null, "affiliatio": null, "bicycle": null, "kerb": null, "crossing_m": null, "traffic_ca": null, "tactile_pa": null, "crossing_i": null, "hazard_bic": null, "highway": null, "crossing": null, "button_ope": null, "path": "Pointem.gpkg|layername=emergency_yes_sweden" }, "geometry": { "type": "Point", "coordinates": [ 18.6889446, 59.7574829 ] } }
]
}
